*******************************************************************************
Ephemeris / WWW_USER Fri Mar  7 11:11:21 2025 Pasadena, USA      / Horizons    
*******************************************************************************
Target body name: (2018 VX1)                      {source: JPL#7}
Center body name: Earth (399)                     {source: DE441}
Center-site name: Mauna Kea
*******************************************************************************
Start time      : A.D. 2018-Dec-20 03:57:00.0000 UT      
Stop  time      : A.D. 2018-Dec-20 16:41:00.0000 UT      
Step-size       : 1 minutes
*******************************************************************************
Target pole/equ : undefined
Target radii    : undefined                                                    
Center geodetic : 204.5278, 19.8260847, 4.21024   {E-lon(deg),Lat(deg),Alt(km)}
Center cylindric: 204.5278, 6006.35451, 2151.0229 {E-lon(deg),Dxy(km),Dz(km)}
Center pole/equ : ITRF93                          {East-longitude positive}
Center radii    : 6378.137, 6378.137, 6356.752 km {Equator_a, b, pole_c}       
Target primary  : Sun
Vis. interferer : MOON (R_eq= 1737.400) km        {source: DE441}
Rel. light bend : Sun                             {source: DE441}
Rel. lght bnd GM: 1.3271E+11 km^3/s^2                                          
Small-body perts: Yes                             {source: SB441-N16}
Atmos refraction: NO (AIRLESS)
RA format       : HMS
Time format     : CAL 
Calendar mode   : Mixed Julian/Gregorian
RTS-only print  : NO       
EOP file        : eop.250306.p250602                                           
EOP coverage    : DATA-BASED 1962-JAN-20 TO 2025-MAR-06. PREDICTS-> 2025-JUN-01
Units conversion: 1 au= 149597870.700 km, c= 299792.458 km/s, 1 day= 86400.0 s 
Table cut-offs 1: Elevation (-90.0deg=NO ),Airmass (>38.000=NO), Daylight (YES)
Table cut-offs 2: Solar elongation (  0.0,180.0=NO ),Local Hour Angle( 0.0=NO )
Table cut-offs 3: RA/DEC angular rate (     0.0=NO )                           
*******************************************************************************
Initial IAU76/J2000 heliocentric ecliptic osculating elements (au, days, deg.):
  EPOCH=  2458429.5 ! 2018-Nov-07.00 (TDB)         Residual RMS= .34243        
   EC= .3094465550301519   QR= .9449639043218054   TP= 2458464.0659233886      
   OM= 45.67874041641947   W=  38.97310343924259   IN= 3.356915226222919       
  Equivalent ICRF heliocentric cartesian coordinates (au, au/d):
   X= 7.224620352366717E-01  Y= 6.383229877646874E-01  Z= 2.747435985069854E-01
  VX=-1.546092850205216E-02 VY= 1.016746642579675E-02 VZ= 5.632057443641291E-03
Asteroid physical parameters (km, seconds, rotational period in hours):        
   GM= n.a.                RAD= n.a.               ROTPER= n.a.                
   H= 27.5                 G= .150                 B-V= n.a.                   
                           ALBEDO= n.a.            STYP= n.a.                  
*******************************************************************************
 Date__(UT)__HR:MN     R.A._________(ICRF)_________DEC
******************************************************
$$SOE
 2018-Dec-20 10:06  m  13 32 45.453135 +06 52 11.78854
 2018-Dec-20 10:07  m  13 32 45.499262 +06 52 11.37848
 2018-Dec-20 10:08  m  13 32 45.545320 +06 52 10.96849
 2018-Dec-20 10:09  m  13 32 45.591307 +06 52 10.55857
 2018-Dec-20 10:10  m  13 32 45.637224 +06 52 10.14871
 2018-Dec-20 10:11  m  13 32 45.683071 +06 52 09.73891
 2018-Dec-20 10:12  m  13 32 45.728848 +06 52 09.32918
 2018-Dec-20 10:13  m  13 32 45.774554 +06 52 08.91952
 2018-Dec-20 10:14  m  13 32 45.820190 +06 52 08.50991
 2018-Dec-20 10:15  m  13 32 45.865755 +06 52 08.10037
 2018-Dec-20 10:16  m  13 32 45.911249 +06 52 07.69089
 2018-Dec-20 10:17  m  13 32 45.956672 +06 52 07.28147
 2018-Dec-20 10:18  m  13 32 46.002023 +06 52 06.87211
 2018-Dec-20 10:19  m  13 32 46.047303 +06 52 06.46281
 2018-Dec-20 10:20  m  13 32 46.092512 +06 52 06.05357
 2018-Dec-20 10:21  m  13 32 46.137649 +06 52 05.64439
 2018-Dec-20 10:22  m  13 32 46.182714 +06 52 05.23527
 2018-Dec-20 10:23  m  13 32 46.227707 +06 52 04.82620
 2018-Dec-20 10:24  m  13 32 46.272628 +06 52 04.41720
 2018-Dec-20 10:25  m  13 32 46.317477 +06 52 04.00825
 2018-Dec-20 10:26  m  13 32 46.362254 +06 52 03.59935
 2018-Dec-20 10:27  m  13 32 46.406958 +06 52 03.19051
 2018-Dec-20 10:28  m  13 32 46.451589 +06 52 02.78173
 2018-Dec-20 10:29  m  13 32 46.496148 +06 52 02.37300
 2018-Dec-20 10:30  m  13 32 46.540633 +06 52 01.96432
 2018-Dec-20 10:31  m  13 32 46.585046 +06 52 01.55570
 2018-Dec-20 10:32  m  13 32 46.629385 +06 52 01.14713
 2018-Dec-20 10:33  m  13 32 46.673652 +06 52 00.73861
 2018-Dec-20 10:34  m  13 32 46.717844 +06 52 00.33015
 2018-Dec-20 10:35  m  13 32 46.761964 +06 51 59.92173
 2018-Dec-20 10:36  m  13 32 46.806009 +06 51 59.51337
 2018-Dec-20 10:37  m  13 32 46.849981 +06 51 59.10505
 2018-Dec-20 10:38  m  13 32 46.893879 +06 51 58.69679
 2018-Dec-20 10:39  m  13 32 46.937703 +06 51 58.28857
 2018-Dec-20 10:40  m  13 32 46.981452 +06 51 57.88040
 2018-Dec-20 10:41  m  13 32 47.025128 +06 51 57.47228
 2018-Dec-20 10:42  m  13 32 47.068729 +06 51 57.06421
 2018-Dec-20 10:43  m  13 32 47.112256 +06 51 56.65618
 2018-Dec-20 10:44  m  13 32 47.155708 +06 51 56.24820
 2018-Dec-20 10:45  m  13 32 47.199085 +06 51 55.84026
 2018-Dec-20 10:46  m  13 32 47.242388 +06 51 55.43237
 2018-Dec-20 10:47  m  13 32 47.285615 +06 51 55.02453
 2018-Dec-20 10:48  m  13 32 47.328768 +06 51 54.61672
 2018-Dec-20 10:49  m  13 32 47.371845 +06 51 54.20896
 2018-Dec-20 10:50  m  13 32 47.414848 +06 51 53.80124
 2018-Dec-20 10:51  m  13 32 47.457774 +06 51 53.39357
 2018-Dec-20 10:52  m  13 32 47.500626 +06 51 52.98593
 2018-Dec-20 10:53  m  13 32 47.543402 +06 51 52.57834
 2018-Dec-20 10:54  m  13 32 47.586102 +06 51 52.17078
 2018-Dec-20 10:55  m  13 32 47.628727 +06 51 51.76327
 2018-Dec-20 10:56  m  13 32 47.671276 +06 51 51.35579
 2018-Dec-20 10:57  m  13 32 47.713749 +06 51 50.94835
 2018-Dec-20 10:58  m  13 32 47.756146 +06 51 50.54095
 2018-Dec-20 10:59  m  13 32 47.798467 +06 51 50.13359
 2018-Dec-20 11:00  m  13 32 47.840711 +06 51 49.72626
 2018-Dec-20 11:01  m  13 32 47.882880 +06 51 49.31897
 2018-Dec-20 11:02  m  13 32 47.924972 +06 51 48.91172
 2018-Dec-20 11:03  m  13 32 47.966988 +06 51 48.50450
 2018-Dec-20 11:04  m  13 32 48.008927 +06 51 48.09731
 2018-Dec-20 11:05  m  13 32 48.050789 +06 51 47.69016
 2018-Dec-20 11:06  m  13 32 48.092575 +06 51 47.28304
 2018-Dec-20 11:07  m  13 32 48.134285 +06 51 46.87595
 2018-Dec-20 11:08  m  13 32 48.175917 +06 51 46.46890
 2018-Dec-20 11:09  m  13 32 48.217473 +06 51 46.06187
 2018-Dec-20 11:10  m  13 32 48.258951 +06 51 45.65488
 2018-Dec-20 11:11  m  13 32 48.300353 +06 51 45.24792
 2018-Dec-20 11:12  m  13 32 48.341677 +06 51 44.84098
 2018-Dec-20 11:13  m  13 32 48.382924 +06 51 44.43408
 2018-Dec-20 11:14  m  13 32 48.424094 +06 51 44.02720
 2018-Dec-20 11:15  m  13 32 48.465187 +06 51 43.62035
 2018-Dec-20 11:16  m  13 32 48.506202 +06 51 43.21353
 2018-Dec-20 11:17  m  13 32 48.547140 +06 51 42.80673
 2018-Dec-20 11:18  m  13 32 48.588000 +06 51 42.39996
 2018-Dec-20 11:19  m  13 32 48.628783 +06 51 41.99322
 2018-Dec-20 11:20  m  13 32 48.669488 +06 51 41.58650
 2018-Dec-20 11:21  m  13 32 48.710116 +06 51 41.17980
 2018-Dec-20 11:22  m  13 32 48.750665 +06 51 40.77313
 2018-Dec-20 11:23  m  13 32 48.791137 +06 51 40.36648
 2018-Dec-20 11:24  m  13 32 48.831532 +06 51 39.95985
 2018-Dec-20 11:25  m  13 32 48.871848 +06 51 39.55325
 2018-Dec-20 11:26  m  13 32 48.912086 +06 51 39.14666
 2018-Dec-20 11:27  m  13 32 48.952247 +06 51 38.74010
 2018-Dec-20 11:28  m  13 32 48.992329 +06 51 38.33356
 2018-Dec-20 11:29  m  13 32 49.032333 +06 51 37.92703
 2018-Dec-20 11:30  m  13 32 49.072259 +06 51 37.52053
 2018-Dec-20 11:31  m  13 32 49.112107 +06 51 37.11404
 2018-Dec-20 11:32  m  13 32 49.151877 +06 51 36.70757
 2018-Dec-20 11:33  m  13 32 49.191569 +06 51 36.30111
 2018-Dec-20 11:34  m  13 32 49.231182 +06 51 35.89468
 2018-Dec-20 11:35  m  13 32 49.270717 +06 51 35.48825
 2018-Dec-20 11:36  m  13 32 49.310173 +06 51 35.08185
 2018-Dec-20 11:37  m  13 32 49.349552 +06 51 34.67545
 2018-Dec-20 11:38  m  13 32 49.388851 +06 51 34.26908
 2018-Dec-20 11:39  r  13 32 49.428073 +06 51 33.86271
 2018-Dec-20 11:40  m  13 32 49.467216 +06 51 33.45636
 2018-Dec-20 11:41  m  13 32 49.506280 +06 51 33.05002
 2018-Dec-20 11:42  m  13 32 49.545266 +06 51 32.64369
 2018-Dec-20 11:43  m  13 32 49.584174 +06 51 32.23737
 2018-Dec-20 11:44  m  13 32 49.623002 +06 51 31.83106
 2018-Dec-20 11:45  m  13 32 49.661753 +06 51 31.42476
 2018-Dec-20 11:46  m  13 32 49.700424 +06 51 31.01847
 2018-Dec-20 11:47  m  13 32 49.739017 +06 51 30.61219
 2018-Dec-20 11:48  m  13 32 49.777532 +06 51 30.20592
 2018-Dec-20 11:49  m  13 32 49.815967 +06 51 29.79965
 2018-Dec-20 11:50  m  13 32 49.854324 +06 51 29.39339
 2018-Dec-20 11:51  m  13 32 49.892603 +06 51 28.98714
 2018-Dec-20 11:52  m  13 32 49.930802 +06 51 28.58089
 2018-Dec-20 11:53  m  13 32 49.968923 +06 51 28.17465
 2018-Dec-20 11:54  m  13 32 50.006966 +06 51 27.76841
 2018-Dec-20 11:55  m  13 32 50.044929 +06 51 27.36217
 2018-Dec-20 11:56  m  13 32 50.082814 +06 51 26.95594
 2018-Dec-20 11:57  m  13 32 50.120620 +06 51 26.54971
 2018-Dec-20 11:58  m  13 32 50.158348 +06 51 26.14348
 2018-Dec-20 11:59  m  13 32 50.195996 +06 51 25.73725
 2018-Dec-20 12:00  m  13 32 50.233566 +06 51 25.33102
 2018-Dec-20 12:01  m  13 32 50.271058 +06 51 24.92479
 2018-Dec-20 12:02  m  13 32 50.308470 +06 51 24.51857
 2018-Dec-20 12:03  m  13 32 50.345804 +06 51 24.11234
 2018-Dec-20 12:04  m  13 32 50.383059 +06 51 23.70611
 2018-Dec-20 12:05  m  13 32 50.420236 +06 51 23.29987
 2018-Dec-20 12:06  m  13 32 50.457333 +06 51 22.89363
 2018-Dec-20 12:07  m  13 32 50.494353 +06 51 22.48739
 2018-Dec-20 12:08  m  13 32 50.531293 +06 51 22.08115
